IRIDIUM 921             
1 24873U 97034E   24207.63932685  .00033019  00000+0  76779-3 0  9998
2 24873  86.3776 269.0365 0006031 109.0496 251.1413 15.42157892481108
IRIDIUM 26              
1 24903U 97043A   24208.19987898  .00000554  00000+0  18224-3 0  9999
2 24903  86.3931 247.3830 0002479  92.8219 267.3262 14.36450658410409
IRIDIUM 22              
1 24907U 97043E   24207.65832215  .00000666  00000+0  22554-3 0  9990
2 24907  86.3935 250.8784 0002229  92.2528 267.8923 14.35337307409922
DUMMY MASS 1            
1 24925U 97048A   24208.24272375  .00000729  00000+0  79680-4 0  9999
2 24925  86.3341 285.9432 0005535 203.0618 157.0359 14.86303595456942
DUMMY MASS 2            
1 24926U 97048B   24208.21837063  .00000731  00000+0  80350-4 0  9997
2 24926  86.3342 287.5050 0005904 219.0674 141.0125 14.86061041456724
IRIDIUM 29              
1 24944U 97051A   24208.20668642  .00000613  00000+0  20520-3 0  9996
2 24944  86.3943 280.5453 0002012  97.5671 262.5754 14.35790837406700
IRIDIUM 33              
1 24946U 97051C   24208.20049494  .00000454  00000+0  15432-3 0  9995
2 24946  86.3858 279.7967 0009889  69.1463 291.0791 14.34429558406010
IRIDIUM 28              
1 24948U 97051E   24208.18469583  .00000658  00000+0  21646-3 0  9999
2 24948  86.3947 278.2546 0002663  90.9089 269.2413 14.36746012407093
